[{"OBJECT_NAME":"STARLINK-30480","OBJECT_ID":"2023-158U","EPOCH":"2026-03-09T12:13:58.064448","MEAN_MOTION":15.27582544,"ECCENTRICITY":0.00035568,"INCLINATION":42.9995,"RA_OF_ASC_NODE":245.8442,"ARG_OF_PERICENTER":286.239,"MEAN_ANOMALY":73.807,"EPHEMERIS_TYPE":0,"CLASSIFICATION_TYPE":"U","NORAD_CAT_ID":58069,"ELEMENT_SET_NO":999,"REV_AT_EPOCH":13521,"BSTAR":0.00032269699,"MEAN_MOTION_DOT":8.629e-5,"MEAN_MOTION_DDOT":0},{"OBJECT_NAME":"COSMOS 1408 DEB","OBJECT_ID":"1982-092ADS","EPOCH":"2026-03-09T15:14:01.495392","MEAN_MOTION":15.34178134,"ECCENTRICITY":0.0122957,"INCLINATION":82.1939,"RA_OF_ASC_NODE":124.7493,"ARG_OF_PERICENTER":254.6382,"MEAN_ANOMALY":104.1246,"EPHEMERIS_TYPE":0,"CLASSIFICATION_TYPE":"U","NORAD_CAT_ID":50404,"ELEMENT_SET_NO":999,"REV_AT_EPOCH":22516,"BSTAR":0.0029669,"MEAN_MOTION_DOT":0.00127192,"MEAN_MOTION_DDOT":0}]
